{
    "type": "FeatureCollection",
    "features": [
      {
        "type": "Feature",
        "properties": {
          "name": "Área Metropolitana de Buenos Aires (AMBA)"
        },
        "geometry": {
          "type": "Polygon",
          "coordinates": [
            [
              [-59.3467, -34.9961],
              [-59.2085, -35.0210],
              [-58.9563, -35.0367],
              [-58.7117, -35.0215],
              [-58.4284, -34.9606],
              [-58.2742, -34.9006],
              [-58.1553, -34.8206],
              [-58.0670, -34.7283],
              [-58.0300, -34.6400],
              [-58.0300, -34.5500],
              [-58.0700, -34.4700],
              [-58.1600, -34.4100],
              [-58.3000, -34.3600],
              [-58.5000, -34.3300],
              [-58.7400, -34.3200],
              [-58.9800, -34.3300],
              [-59.1600, -34.3700],
              [-59.2800, -34.4300],
              [-59.3500, -34.5100],
              [-59.3800, -34.6100],
              [-59.3700, -34.7200],
              [-59.3500, -34.8200],
              [-59.3300, -34.9200],
              [-59.3467, -34.9961]
            ]
          ]
        }
      }
    ]
  }
  